[{"OBJECT_NAME":"SHIYAN-24C 03","OBJECT_ID":"2023-206C","EPOCH":"2026-03-09T21:23:43.281888","MEAN_MOTION":14.97896938,"ECCENTRICITY":0.0002411,"INCLINATION":97.3969,"RA_OF_ASC_NODE":41.7507,"ARG_OF_PERICENTER":66.6237,"MEAN_ANOMALY":293.524,"EPHEMERIS_TYPE":0,"CLASSIFICATION_TYPE":"U","NORAD_CAT_ID":58652,"ELEMENT_SET_NO":999,"REV_AT_EPOCH":12043,"BSTAR":0.00011928,"MEAN_MOTION_DOT":1.35e-5,"MEAN_MOTION_DDOT":0},{"OBJECT_NAME":"STARLINK-32900","OBJECT_ID":"2025-037S","EPOCH":"2026-03-09T21:27:27.753408","MEAN_MOTION":14.98334642,"ECCENTRICITY":0.00024557,"INCLINATION":70.0044,"RA_OF_ASC_NODE":353.9042,"ARG_OF_PERICENTER":261.8382,"MEAN_ANOMALY":98.2498,"EPHEMERIS_TYPE":0,"CLASSIFICATION_TYPE":"U","NORAD_CAT_ID":63093,"ELEMENT_SET_NO":999,"REV_AT_EPOCH":5849,"BSTAR":0.00067469364,"MEAN_MOTION_DOT":7.967e-5,"MEAN_MOTION_DDOT":0}]
